{
  "type": "FeatureCollection",
  "features": [
    {
      "type": "Feature",
      "properties": {
        "norad_id": 67119,
        "name": "STARLINK-36179",
        "group": "last-30-days",
        "lat": 22.526803558003174,
        "lon": -109.24354242994829,
        "alt_km": 345.1158414973079,
        "timestamp": "2025-12-27T19:21:57.547182+00:00",
        "meta_object_name": "STARLINK-36179",
        "meta_object_id": "2025-299T",
        "meta_epoch": "2025-12-27T12:00:02.000160",
        "meta_mean_motion": 15.75186642,
        "meta_eccentricity": 0.0001609,
        "meta_inclination": 42.9989,
        "meta_ra_of_asc_node": 226.1864,
        "meta_arg_of_pericenter": 267.4777,
        "meta_mean_anomaly": 185.0799,
        "meta_ephemeris_type": 0,
        "meta_classification_type": "U",
        "meta_norad_cat_id": 67119,
        "meta_element_set_no": 999,
        "meta_rev_at_epoch": 318,
        "meta_bstar": -0.014226,
        "meta_mean_motion_dot": -0.01911309,
        "meta_mean_motion_ddot": 0,
        "tle_line1": "1 67119U 25299T   25361.50002315 -.01911309  00000+0 -14226-1 0  9995",
        "tle_line2": "2 67119  42.9989 226.1864 0001609 267.4777 185.0799 15.75186642  3188"
      },
      "geometry": {
        "type": "Point",
        "coordinates": [
          -109.24354242994829,
          22.526803558003174
        ]
      }
    },
    {
      "type": "Feature",
      "properties": {
        "norad_id": 67120,
        "name": "STARLINK-36217",
        "group": "last-30-days",
        "lat": 21.608735718819094,
        "lon": -110.51338023867719,
        "alt_km": 345.3616961210337,
        "timestamp": "2025-12-27T19:21:57.547211+00:00",
        "meta_object_name": "STARLINK-36217",
        "meta_object_id": "2025-299U",
        "meta_epoch": "2025-12-27T12:00:02.000160",
        "meta_mean_motion": 15.75167756,
        "meta_eccentricity": 0.0001759,
        "meta_inclination": 42.9991,
        "meta_ra_of_asc_node": 226.1909,
        "meta_arg_of_pericenter": 266.9142,
        "meta_mean_anomaly": 184.1687,
        "meta_ephemeris_type": 0,
        "meta_classification_type": "U",
        "meta_norad_cat_id": 67120,
        "meta_element_set_no": 999,
        "meta_rev_at_epoch": 318,
        "meta_bstar": -0.014249,
        "meta_mean_motion_dot": -0.01912817,
        "meta_mean_motion_ddot": 0,
        "tle_line1": "1 67120U 25299U   25361.50002315 -.01912817  00000+0 -14249-1 0  9997",
        "tle_line2": "2 67120  42.9991 226.1909 0001759 266.9142 184.1687 15.75167756  3180"
      },
      "geometry": {
        "type": "Point",
        "coordinates": [
          -110.51338023867719,
          21.608735718819094
        ]
      }
    },
    {
      "type": "Feature",
      "properties": {
        "norad_id": 67121,
        "name": "STARLINK-36124",
        "group": "last-30-days",
        "lat": 24.68402217039741,
        "lon": -106.12868407136632,
        "alt_km": 344.792753896716,
        "timestamp": "2025-12-27T19:21:57.547220+00:00",
        "meta_object_name": "STARLINK-36124",
        "meta_object_id": "2025-299V",
        "meta_epoch": "2025-12-27T12:00:02.000160",
        "meta_mean_motion": 15.75204288,
        "meta_eccentricity": 0.0001753,
        "meta_inclination": 42.999,
        "meta_ra_of_asc_node": 226.1779,
        "meta_arg_of_pericenter": 270.3275,
        "meta_mean_anomaly": 185.7918,
        "meta_ephemeris_type": 0,
        "meta_classification_type": "U",
        "meta_norad_cat_id": 67121,
        "meta_element_set_no": 999,
        "meta_rev_at_epoch": 318,
        "meta_bstar": -0.014258,
        "meta_mean_motion_dot": -0.01916495,
        "meta_mean_motion_ddot": 0,
        "tle_line1": "1 67121U 25299V   25361.50002315 -.01916495  00000+0 -14258-1 0  9994",
        "tle_line2": "2 67121  42.9990 226.1779 0001753 270.3275 185.7918 15.75204288  3181"
      },
      "geometry": {
        "type": "Point",
        "coordinates": [
          -106.12868407136632,
          24.68402217039741
        ]
      }
    },
    {
      "type": "Feature",
      "properties": {
        "norad_id": 67122,
        "name": "STARLINK-36188",
        "group": "last-30-days",
        "lat": 25.64013378125026,
        "lon": -104.6817448599092,
        "alt_km": 344.73188610107445,
        "timestamp": "2025-12-27T19:21:57.547228+00:00",
        "meta_object_name": "STARLINK-36188",
        "meta_object_id": "2025-299W",
        "meta_epoch": "2025-12-27T12:00:02.000160",
        "meta_mean_motion": 15.75218285,
        "meta_eccentricity": 0.0001726,
        "meta_inclination": 42.999,
        "meta_ra_of_asc_node": 226.1744,
        "meta_arg_of_pericenter": 264.3551,
        "meta_mean_anomaly": 193.3728,
        "meta_ephemeris_type": 0,
        "meta_classification_type": "U",
        "meta_norad_cat_id": 67122,
        "meta_element_set_no": 999,
        "meta_rev_at_epoch": 318,
        "meta_bstar": -0.014234,
        "meta_mean_motion_dot": -0.01914668,
        "meta_mean_motion_ddot": 0,
        "tle_line1": "1 67122U 25299W   25361.50002315 -.01914668  00000+0 -14234-1 0  9999",
        "tle_line2": "2 67122  42.9990 226.1744 0001726 264.3551 193.3728 15.75218285  3180"
      },
      "geometry": {
        "type": "Point",
        "coordinates": [
          -104.6817448599092,
          25.64013378125026
        ]
      }
    },
    {
      "type": "Feature",
      "properties": {
        "norad_id": 67123,
        "name": "STARLINK-36151",
        "group": "last-30-days",
        "lat": 23.600711667926358,
        "lon": -107.71667641591178,
        "alt_km": 345.0206995529734,
        "timestamp": "2025-12-27T19:21:57.547237+00:00",
        "meta_object_name": "STARLINK-36151",
        "meta_object_id": "2025-299X",
        "meta_epoch": "2025-12-27T12:00:02.000160",
        "meta_mean_motion": 15.75199541,
        "meta_eccentricity": 0.0001547,
        "meta_inclination": 42.999,
        "meta_ra_of_asc_node": 226.1826,
        "meta_arg_of_pericenter": 262.7585,
        "meta_mean_anomaly": 191.5605,
        "meta_ephemeris_type": 0,
        "meta_classification_type": "U",
        "meta_norad_cat_id": 67123,
        "meta_element_set_no": 999,
        "meta_rev_at_epoch": 318,
        "meta_bstar": -0.014298,
        "meta_mean_motion_dot": -0.01920603,
        "meta_mean_motion_ddot": 0,
        "tle_line1": "1 67123U 25299X   25361.50002315 -.01920603  00000+0 -14298-1 0  9996",
        "tle_line2": "2 67123  42.9990 226.1826 0001547 262.7585 191.5605 15.75199541  3189"
      },
      "geometry": {
        "type": "Point",
        "coordinates": [
          -107.71667641591178,
          23.600711667926358
        ]
      }
    },
    {
      "type": "Feature",
      "properties": {
        "norad_id": 67124,
        "name": "STARLINK-36195",
        "group": "last-30-days",
        "lat": 26.648854445722442,
        "lon": -103.10587893173323,
        "alt_km": 344.5496013215352,
        "timestamp": "2025-12-27T19:21:57.547246+00:00",
        "meta_object_name": "STARLINK-36195",
        "meta_object_id": "2025-299Y",
        "meta_epoch": "2025-12-27T12:00:02.000160",
        "meta_mean_motion": 15.7522448,
        "meta_eccentricity": 0.0001561,
        "meta_inclination": 42.999,
        "meta_ra_of_asc_node": 226.1696,
        "meta_arg_of_pericenter": 261.1916,
        "meta_mean_anomaly": 198.2712,
        "meta_ephemeris_type": 0,
        "meta_classification_type": "U",
        "meta_norad_cat_id": 67124,
        "meta_element_set_no": 999,
        "meta_rev_at_epoch": 318,
        "meta_bstar": -0.014225,
        "meta_mean_motion_dot": -0.01913986,
        "meta_mean_motion_ddot": 0,
        "tle_line1": "1 67124U 25299Y   25361.50002315 -.01913986  00000+0 -14225-1 0  9993",
        "tle_line2": "2 67124  42.9990 226.1696 0001561 261.1916 198.2712 15.75224480  3186"
      },
      "geometry": {
        "type": "Point",
        "coordinates": [
          -103.10587893173323,
          26.648854445722442
        ]
      }
    },
    {
      "type": "Feature",
      "properties": {
        "norad_id": 67125,
        "name": "STARLINK-36219",
        "group": "last-30-days",
        "lat": 27.606254179907992,
        "lon": -101.55680914967743,
        "alt_km": 344.27743258598184,
        "timestamp": "2025-12-27T19:21:57.547255+00:00",
        "meta_object_name": "STARLINK-36219",
        "meta_object_id": "2025-299Z",
        "meta_epoch": "2025-12-27T12:00:02.000160",
        "meta_mean_motion": 15.75243157,
        "meta_eccentricity": 0.0001653,
        "meta_inclination": 42.999,
        "meta_ra_of_asc_node": 226.1655,
        "meta_arg_of_pericenter": 270.003,
        "meta_mean_anomaly": 191.1195,
        "meta_ephemeris_type": 0,
        "meta_classification_type": "U",
        "meta_norad_cat_id": 67125,
        "meta_element_set_no": 999,
        "meta_rev_at_epoch": 318,
        "meta_bstar": -0.014285,
        "meta_mean_motion_dot": -0.01922339,
        "meta_mean_motion_ddot": 0,
        "tle_line1": "1 67125U 25299Z   25361.50002315 -.01922339  00000+0 -14285-1 0  9992",
        "tle_line2": "2 67125  42.9990 226.1655 0001653 270.0030 191.1195 15.75243157  3189"
      },
      "geometry": {
        "type": "Point",
        "coordinates": [
          -101.55680914967743,
          27.606254179907992
        ]
      }
    }
  ]
}